start=new Date('2022-04-22T00:00:00.000Z').valueOf();
sats=[{"MEAN_MOTION":"15.06388792","FILE":"3410450","ELEMENT_SET_NO":"999","REF_FRAME":"TEME","OBJECT_TYPE":"PAYLOAD","MEAN_ANOMALY":"300.6963","BSTAR":"0.00364440000000","GP_ID":"201775501","MEAN_ELEMENT_THEORY":"SGP4","TLE_LINE2":"2 47991  53.0533 145.8771 0001353  69.1241 300.6963 15.06388792  3615","COUNTRY_CODE":"US","TLE_LINE1":"1 47991U 21024Q   22112.00001157  .00054406  00000-0  36444-2 0  9993","OBJECT_NAME":"STARLINK-2279","DECAY_DATE":null,"NORAD_CAT_ID":"47991","CLASSIFICATION_TYPE":"U","PERIAPSIS":"546.311","ARG_OF_PERICENTER":"69.1241","APOAPSIS":"548.185","EPHEMERIS_TYPE":"0","TIME_SYSTEM":"UTC","REV_AT_EPOCH":"361","EPOCH":"2022-04-22T00:00:00.999648","RCS_SIZE":"LARGE","LAUNCH_DATE":"2021-03-24","MEAN_MOTION_DOT":"0.00054406","RA_OF_ASC_NODE":"145.8771","CENTER_NAME":"EARTH","MEAN_MOTION_DDOT":"0.0000000000000","SEMIMAJOR_AXIS":"6925.383","OBJECT_ID":"2021-024Q","INCLINATION":"53.0533","ECCENTRICITY":"0.00013530","SITE":"AFETR","PERIOD":"95.593"},{"FILE":"3410450","MEAN_MOTION":"15.06372274","ELEMENT_SET_NO":"999","OBJECT_TYPE":"PAYLOAD","MEAN_ANOMALY":"251.0863","REF_FRAME":"TEME","BSTAR":"0.00237450000000","GP_ID":"201774755","MEAN_ELEMENT_THEORY":"SGP4","TLE_LINE2":"2 47992  53.0522 140.8779 0001937  46.2498 251.0863 15.06372274  3600","COUNTRY_CODE":"US","TLE_LINE1":"1 47992U 21024R   22112.00001157  .00035238  00000-0  23745-2 0  9996","OBJECT_NAME":"STARLINK-2229","DECAY_DATE":null,"CLASSIFICATION_TYPE":"U","NORAD_CAT_ID":"47992","PERIAPSIS":"545.957","ARG_OF_PERICENTER":"46.2498","APOAPSIS":"548.640","TIME_SYSTEM":"UTC","EPHEMERIS_TYPE":"0","REV_AT_EPOCH":"360","EPOCH":"2022-04-22T00:00:00.999648","RCS_SIZE":"LARGE","LAUNCH_DATE":"2021-03-24","MEAN_MOTION_DOT":"0.00035238","RA_OF_ASC_NODE":"140.8779","CENTER_NAME":"EARTH","MEAN_MOTION_DDOT":"0.0000000000000","OBJECT_ID":"2021-024R","SEMIMAJOR_AXIS":"6925.434","INCLINATION":"53.0522","ECCENTRICITY":"0.00019370","SITE":"AFETR","PERIOD":"95.594"},{"RA_OF_ASC_NODE":"182.5522","MEAN_MOTION_DOT":"-0.00000506","LAUNCH_DATE":"2021-03-24","RCS_SIZE":"LARGE","EPOCH":"2022-04-21T15:06:02.473056","REV_AT_EPOCH":"6086","TIME_SYSTEM":"UTC","EPHEMERIS_TYPE":"0","PERIOD":"95.593","SITE":"AFETR","ECCENTRICITY":"0.00017420","INCLINATION":"53.0546","OBJECT_ID":"2021-024S","SEMIMAJOR_AXIS":"6925.373","MEAN_MOTION_DDOT":"0.0000000000000","CENTER_NAME":"EARTH","GP_ID":"201775005","BSTAR":"-0.00001504300000","MEAN_ANOMALY":"308.8233","OBJECT_TYPE":"PAYLOAD","REF_FRAME":"TEME","ELEMENT_SET_NO":"999","MEAN_MOTION":"15.06391897","FILE":"3410450","APOAPSIS":"548.445","ARG_OF_PERICENTER":"51.2912","PERIAPSIS":"546.032","DECAY_DATE":null,"CLASSIFICATION_TYPE":"U","NORAD_CAT_ID":"47993","OBJECT_NAME":"STARLINK-2273","TLE_LINE1":"1 47993U 21024S   22111.62919529 -.00000506  00000-0 -15043-4 0  9991","TLE_LINE2":"2 47993  53.0546 182.5522 0001742  51.2912 308.8233 15.06391897 60862","COUNTRY_CODE":"US","MEAN_ELEMENT_THEORY":"SGP4"},{"MEAN_ELEMENT_THEORY":"SGP4","OBJECT_NAME":"STARLINK-2290","TLE_LINE1":"1 47994U 21024T   22111.50064566 -.00000014  00000-0  17958-4 0  9991","COUNTRY_CODE":"US","TLE_LINE2":"2 47994  53.0568 198.1189 0001716  60.8639 299.2522 15.06403434 61093","DECAY_DATE":null,"NORAD_CAT_ID":"47994","CLASSIFICATION_TYPE":"U","APOAPSIS":"548.391","ARG_OF_PERICENTER":"60.8639","PERIAPSIS":"546.015","ELEMENT_SET_NO":"999","MEAN_MOTION":"15.06403434","FILE":"3410449","BSTAR":"0.00001795800000","OBJECT_TYPE":"PAYLOAD","MEAN_ANOMALY":"299.2522","REF_FRAME":"TEME","GP_ID":"201749386","OBJECT_ID":"2021-024T","SEMIMAJOR_AXIS":"6925.338","MEAN_MOTION_DDOT":"0.0000000000000","CENTER_NAME":"EARTH","ECCENTRICITY":"0.00017160","INCLINATION":"53.0568","PERIOD":"95.592","SITE":"AFETR","REV_AT_EPOCH":"6109","EPHEMERIS_TYPE":"0","TIME_SYSTEM":"UTC","RCS_SIZE":"LARGE","EPOCH":"2022-04-21T12:00:55.785024","MEAN_MOTION_DOT":"-0.00000014","LAUNCH_DATE":"2021-03-24","RA_OF_ASC_NODE":"198.1189"},{"MEAN_ELEMENT_THEORY":"SGP4","OBJECT_NAME":"STARLINK-2309","TLE_LINE2":"2 47995  53.0549 162.6303 0001668  54.9072 305.2073 15.06394929 61141","COUNTRY_CODE":"US","TLE_LINE1":"1 47995U 21024U   22111.61165858 -.00000038  00000-0  16366-4 0  9998","NORAD_CAT_ID":"47995","DECAY_DATE":null,"CLASSIFICATION_TYPE":"U","APOAPSIS":"548.384","PERIAPSIS":"546.074","ARG_OF_PERICENTER":"54.9072","ELEMENT_SET_NO":"999","MEAN_MOTION":"15.06394929","FILE":"3410450","BSTAR":"0.00001636600000","OBJECT_TYPE":"PAYLOAD","MEAN_ANOMALY":"305.2073","REF_FRAME":"TEME","GP_ID":"201776002","SEMIMAJOR_AXIS":"6925.364","OBJECT_ID":"2021-024U","CENTER_NAME":"EARTH","MEAN_MOTION_DDOT":"0.0000000000000","ECCENTRICITY":"0.00016680","INCLINATION":"53.0549","PERIOD":"95.592","SITE":"AFETR","REV_AT_EPOCH":"6114","EPHEMERIS_TYPE":"0","TIME_SYSTEM":"UTC","RCS_SIZE":"LARGE","EPOCH":"2022-04-21T14:40:47.301312","MEAN_MOTION_DOT":"-0.00000038","LAUNCH_DATE":"2021-03-24","RA_OF_ASC_NODE":"162.6303"},{"REV_AT_EPOCH":"365","EPHEMERIS_TYPE":"0","TIME_SYSTEM":"UTC","RCS_SIZE":"LARGE","EPOCH":"2022-04-22T00:00:00.999648","MEAN_MOTION_DOT":"-0.00007314","LAUNCH_DATE":"2021-03-24","RA_OF_ASC_NODE":"93.2485","OBJECT_ID":"2021-024V","SEMIMAJOR_AXIS":"6834.563","MEAN_MOTION_DDOT":"0.0000000000000","CENTER_NAME":"EARTH","ECCENTRICITY":"0.00031350","INCLINATION":"53.0453","PERIOD":"93.719","SITE":"AFETR","ELEMENT_SET_NO":"999","MEAN_MOTION":"15.36514299","FILE":"3410450","BSTAR":"-0.00019175000000","OBJECT_TYPE":"PAYLOAD","REF_FRAME":"TEME","MEAN_ANOMALY":"93.3730","GP_ID":"201774255","MEAN_ELEMENT_THEORY":"SGP4","OBJECT_NAME":"STARLINK-2260","TLE_LINE1":"1 47996U 21024V   22112.00001157 -.00007314  00000-0 -19175-3 0  9999","TLE_LINE2":"2 47996  53.0453  93.2485 0003135 159.0275  93.3730 15.36514299  3653","COUNTRY_CODE":"US","DECAY_DATE":null,"CLASSIFICATION_TYPE":"U","NORAD_CAT_ID":"47996","APOAPSIS":"458.571","ARG_OF_PERICENTER":"159.0275","PERIAPSIS":"454.286"},{"OBJECT_NAME":"STARLINK-2266","TLE_LINE2":"2 47997  53.0533 197.3137 0001743  65.7385 294.3786 15.06402814 61183","COUNTRY_CODE":"US","TLE_LINE1":"1 47997U 21024W   22111.68124994  .00001129  00000-0  94649-4 0  9994","MEAN_ELEMENT_THEORY":"SGP4","APOAPSIS":"548.412","PERIAPSIS":"545.998","ARG_OF_PERICENTER":"65.7385","CLASSIFICATION_TYPE":"U","DECAY_DATE":null,"NORAD_CAT_ID":"47997","BSTAR":"0.00009464900000","MEAN_ANOMALY":"294.3786","OBJECT_TYPE":"PAYLOAD","REF_FRAME":"TEME","ELEMENT_SET_NO":"999","FILE":"3410450","MEAN_MOTION":"15.06402814","GP_ID":"201774505","OBJECT_ID":"2021-024W","SEMIMAJOR_AXIS":"6925.340","CENTER_NAME":"EARTH","MEAN_MOTION_DDOT":"0.0000000000000","PERIOD":"95.592","SITE":"AFETR","ECCENTRICITY":"0.00017430","INCLINATION":"53.0533","RCS_SIZE":"LARGE","EPOCH":"2022-04-21T16:20:59.994816","REV_AT_EPOCH":"6118","EPHEMERIS_TYPE":"0","TIME_SYSTEM":"UTC","RA_OF_ASC_NODE":"197.3137","MEAN_MOTION_DOT":"0.00001129","LAUNCH_DATE":"2021-03-24"},{"APOAPSIS":"548.344","ARG_OF_PERICENTER":"48.0539","PERIAPSIS":"546.021","CLASSIFICATION_TYPE":"U","DECAY_DATE":null,"NORAD_CAT_ID":"47998","OBJECT_NAME":"STARLINK-2296","TLE_LINE1":"1 47998U 21024X   22111.66602259 -.00000438  00000-0 -10519-4 0  9996","TLE_LINE2":"2 47998  53.0560 172.3763 0001677  48.0539 312.0593 15.06410066 61006","COUNTRY_CODE":"US","MEAN_ELEMENT_THEORY":"SGP4","GP_ID":"201775757","BSTAR":"-0.00001051900000","REF_FRAME":"TEME","OBJECT_TYPE":"PAYLOAD","MEAN_ANOMALY":"312.0593","ELEMENT_SET_NO":"999","FILE":"3410450","MEAN_MOTION":"15.06410066","PERIOD":"95.592","SITE":"AFETR","ECCENTRICITY":"0.00016770","INCLINATION":"53.0560","OBJECT_ID":"2021-024X","SEMIMAJOR_AXIS":"6925.318","MEAN_MOTION_DDOT":"0.0000000000000","CENTER_NAME":"EARTH","RA_OF_ASC_NODE":"172.3763","MEAN_MOTION_DOT":"-0.00000438","LAUNCH_DATE":"2021-03-24","RCS_SIZE":"LARGE","EPOCH":"2022-04-21T15:59:04.351776","REV_AT_EPOCH":"6100","EPHEMERIS_TYPE":"0","TIME_SYSTEM":"UTC"},{"MEAN_MOTION":"15.06394388","FILE":"3410450","ELEMENT_SET_NO":"999","REF_FRAME":"TEME","OBJECT_TYPE":"PAYLOAD","MEAN_ANOMALY":"104.5204","BSTAR":"0.00291670000000","GP_ID":"201775502","MEAN_ELEMENT_THEORY":"SGP4","COUNTRY_CODE":"US","TLE_LINE2":"2 47999  53.0548 140.8864 0001526  52.7756 104.5204 15.06394388  3615","TLE_LINE1":"1 47999U 21024Y   22112.00001157  .00043425  00000-0  29167-2 0  9994","OBJECT_NAME":"STARLINK-2218","DECAY_DATE":null,"NORAD_CAT_ID":"47999","CLASSIFICATION_TYPE":"U","PERIAPSIS":"546.174","ARG_OF_PERICENTER":"52.7756","APOAPSIS":"548.288","EPHEMERIS_TYPE":"0","TIME_SYSTEM":"UTC","REV_AT_EPOCH":"361","EPOCH":"2022-04-22T00:00:00.999648","RCS_SIZE":"LARGE","LAUNCH_DATE":"2021-03-24","MEAN_MOTION_DOT":"0.00043425","RA_OF_ASC_NODE":"140.8864","CENTER_NAME":"EARTH","MEAN_MOTION_DDOT":"0.0000000000000","OBJECT_ID":"2021-024Y","SEMIMAJOR_AXIS":"6925.366","INCLINATION":"53.0548","ECCENTRICITY":"0.00015260","SITE":"AFETR","PERIOD":"95.592"},{"FILE":"3410450","MEAN_MOTION":"15.06395398","ELEMENT_SET_NO":"999","OBJECT_TYPE":"PAYLOAD","REF_FRAME":"TEME","MEAN_ANOMALY":"243.1766","BSTAR":"0.00232650000000","GP_ID":"201774756","MEAN_ELEMENT_THEORY":"SGP4","COUNTRY_CODE":"US","TLE_LINE2":"2 48000  53.0540 125.8691 0002410  36.6460 243.1766 15.06395398  3602","TLE_LINE1":"1 48000U 21024Z   22112.00001157  .00034539  00000-0  23265-2 0  9997","OBJECT_NAME":"STARLINK-2270","CLASSIFICATION_TYPE":"U","DECAY_DATE":null,"NORAD_CAT_ID":"48000","PERIAPSIS":"545.559","ARG_OF_PERICENTER":"36.6460","APOAPSIS":"548.897","TIME_SYSTEM":"UTC","EPHEMERIS_TYPE":"0","REV_AT_EPOCH":"360","EPOCH":"2022-04-22T00:00:00.999648","RCS_SIZE":"LARGE","LAUNCH_DATE":"2021-03-24","MEAN_MOTION_DOT":"0.00034539","RA_OF_ASC_NODE":"125.8691","CENTER_NAME":"EARTH","MEAN_MOTION_DDOT":"0.0000000000000","OBJECT_ID":"2021-024Z","SEMIMAJOR_AXIS":"6925.363","INCLINATION":"53.0540","ECCENTRICITY":"0.00024100","SITE":"AFETR","PERIOD":"95.592"}];
